0 THOR ABLESTAR DEB
1 01522U 65065L   13281.44812068  .00000071  00000-0  12622-3 0  5136
2 01522 090.1653 057.4128 0069503 306.1208 117.0677 13.33498968342457
0 THOR ABLESTAR DEB
1 01522U 65065L   13283.46929325  .00000045  00000-0  74411-4 0  5142
2 01522 090.1657 057.4455 0069464 300.2886 100.0546 13.33499495342720
0 THOR ABLESTAR DEB
1 01522U 65065L   13285.82168153  .00000033  00000-0  49779-4 0  5155
2 01522 090.1663 057.4836 0069420 293.5052 233.1014 13.33499691343032
0 THOR ABLESTAR DEB
1 01522U 65065L   13288.13887882  .00000047  00000-0  77937-4 0  5162
2 01522 090.1669 057.5213 0069400 286.8192 197.2140 13.33499753343349
0 THOR ABLESTAR DEB
1 01522U 65065L   13290.16401745  .00000064  00000-0  11200-3 0  5178
2 01522 090.1673 057.5544 0069426 280.9816 199.2424 13.33499810343618
0 THOR ABLESTAR DEB
1 01522U 65065L   13292.47574890  .00000086  00000-0  15736-3 0  5189
2 01522 090.1673 057.5923 0069499 274.3130 137.1168 13.33499986343929
0 THOR ABLESTAR DEB
1 01522U 65065L   13294.82387762  .00000080  00000-0  14522-3 0  5197
2 01522 090.1673 057.6308 0069557 267.5476 249.7135 13.33500361344238
